METEOSAT-9 (MSG-2)      
1 28912U 05049B   26183.76303863  .00000130  00000+0  00000+0 0  9998
2 28912   9.3943  54.0128 0002566 359.4901 187.7563  1.00267373  7151
METOP-B                 
1 38771U 12049A   26183.81641536  .00000135  00000+0  81600-4 0  9993
2 38771  98.6496 235.0033 0001303 327.6021  32.5076 14.21443713715482
NOAA 20 (JPSS-1)        
1 43013U 17073A   26184.56561738  .00000080  00000+0  59079-4 0  9992
2 43013  98.7772 123.8828 0000907 132.6737 227.4515 14.19514774446799
METOP-C                 
1 43689U 18087A   26183.76441601  .00000135  00000+0  81723-4 0  9996
2 43689  98.6637 243.0828 0002154 109.5138 250.6273 14.21516397397044
NEMO-HD                 
1 46277U 20061F   26184.51855985  .00015279  00000+0  32642-3 0  9995
2 46277  97.1907 246.3092 0001406  73.3282 286.8122 15.44933522324504
METEOSAT-12 (MTG-I1)    
1 54743U 22170C   26183.72509264  .00000004  00000+0  00000+0 0  9992
2 54743   0.7551  25.3200 0003602  74.6137  81.6181  1.00276285 13138
MTG-S1                  
1 64723U 25143A   26183.72509264  .00000003  00000+0  00000+0 0  9993
2 64723   0.5916 342.2144 0002957 262.9947 296.1264  1.00272109  3574
MICROCARB               
1 64899U 25156A   26183.16721105  .00000648  00000+0  10882-3 0  9997
2 64899  98.0094 260.0568 0017037 208.4094 151.6186 14.72881876 50173
NISAR                   
1 65053U 25163A   26183.77195133  .00000232  00000+0  83074-4 0  9994
2 65053  98.4056  11.2093 0001222  88.7062 271.4268 14.42504821 48639
METOP-SGA1              
1 65159U 25172A   26183.64337603  .00000065  00000+0  51184-4 0  9998
2 65159  98.6636 243.0440 0007790   9.5325 350.5998 14.19817616 45989
