{
 "generated_at": "2026-07-04T07:46:40Z",
 "sources": [
  {
   "name": "CelesTrak",
   "url": "https://celestrak.org/NORAD/elements/",
   "license": "frei verfügbar; Attribution. Ursprünglich USSPACECOM/Space-Track."
  },
  {
   "name": "GCAT (J. McDowell, planet4589.org)",
   "url": "https://planet4589.org/space/gcat/",
   "license": "CC-BY 4.0"
  }
 ],
 "satellites": [
  {
   "norad": 54743,
   "name": "METEOSAT-12 (MTG-I1)",
   "intl": "2022-170C",
   "group": "weather",
   "gcat": {
    "class": "C",
    "category": "MET",
    "owner": "EUMET",
    "state": "I-EUM"
   },
   "omm": {
    "OBJECT_NAME": "METEOSAT-12 (MTG-I1)",
    "OBJECT_ID": "2022-170C",
    "EPOCH": "2026-07-02T17:24:08.004096",
    "MEAN_MOTION": 1.00276285,
    "ECCENTRICITY": 0.00036023,
    "INCLINATION": 0.7551,
    "RA_OF_ASC_NODE": 25.32,
    "ARG_OF_PERICENTER": 74.6137,
    "MEAN_ANOMALY": 81.6181,
    "EPHEMERIS_TYPE": 0,
    "CLASSIFICATION_TYPE": "U",
    "NORAD_CAT_ID": 54743,
    "ELEMENT_SET_NO": 999,
    "REV_AT_EPOCH": 1313,
    "BSTAR": 0,
    "MEAN_MOTION_DOT": 4e-8,
    "MEAN_MOTION_DDOT": 0
   }
  },
  {
   "norad": 28912,
   "name": "METEOSAT-9 (MSG-2)",
   "intl": "2005-049B",
   "group": "weather",
   "gcat": {
    "class": "C",
    "category": "MET",
    "owner": "EUMET",
    "state": "I-EUM"
   },
   "omm": {
    "OBJECT_NAME": "METEOSAT-9 (MSG-2)",
    "OBJECT_ID": "2005-049B",
    "EPOCH": "2026-07-02T18:18:46.537632",
    "MEAN_MOTION": 1.00267373,
    "ECCENTRICITY": 0.00025668,
    "INCLINATION": 9.3943,
    "RA_OF_ASC_NODE": 54.0128,
    "ARG_OF_PERICENTER": 359.4901,
    "MEAN_ANOMALY": 187.7563,
    "EPHEMERIS_TYPE": 0,
    "CLASSIFICATION_TYPE": "U",
    "NORAD_CAT_ID": 28912,
    "ELEMENT_SET_NO": 999,
    "REV_AT_EPOCH": 715,
    "BSTAR": 0,
    "MEAN_MOTION_DOT": 0.0000013,
    "MEAN_MOTION_DDOT": 0
   }
  },
  {
   "norad": 38771,
   "name": "METOP-B",
   "intl": "2012-049A",
   "group": "weather",
   "gcat": {
    "class": "C",
    "category": "MET",
    "owner": "EUMET",
    "state": "I-EUM"
   },
   "omm": {
    "OBJECT_NAME": "METOP-B",
    "OBJECT_ID": "2012-049A",
    "EPOCH": "2026-07-02T19:35:38.287104",
    "MEAN_MOTION": 14.21443713,
    "ECCENTRICITY": 0.0001303,
    "INCLINATION": 98.6496,
    "RA_OF_ASC_NODE": 235.0033,
    "ARG_OF_PERICENTER": 327.6021,
    "MEAN_ANOMALY": 32.5076,
    "EPHEMERIS_TYPE": 0,
    "CLASSIFICATION_TYPE": "U",
    "NORAD_CAT_ID": 38771,
    "ELEMENT_SET_NO": 999,
    "REV_AT_EPOCH": 71548,
    "BSTAR": 0.000081599903,
    "MEAN_MOTION_DOT": 0.00000135,
    "MEAN_MOTION_DDOT": 0
   }
  },
  {
   "norad": 43689,
   "name": "METOP-C",
   "intl": "2018-087A",
   "group": "weather",
   "gcat": {
    "class": "C",
    "category": "MET",
    "owner": "EUMET",
    "state": "I-EUM"
   },
   "omm": {
    "OBJECT_NAME": "METOP-C",
    "OBJECT_ID": "2018-087A",
    "EPOCH": "2026-07-02T18:20:45.543264",
    "MEAN_MOTION": 14.21516397,
    "ECCENTRICITY": 0.00021547,
    "INCLINATION": 98.6637,
    "RA_OF_ASC_NODE": 243.0828,
    "ARG_OF_PERICENTER": 109.5138,
    "MEAN_ANOMALY": 250.6273,
    "EPHEMERIS_TYPE": 0,
    "CLASSIFICATION_TYPE": "U",
    "NORAD_CAT_ID": 43689,
    "ELEMENT_SET_NO": 999,
    "REV_AT_EPOCH": 39704,
    "BSTAR": 0.000081723007,
    "MEAN_MOTION_DOT": 0.00000135,
    "MEAN_MOTION_DDOT": 0
   }
  },
  {
   "norad": 65159,
   "name": "METOP-SGA1",
   "intl": "2025-172A",
   "group": "weather",
   "gcat": {
    "class": "C",
    "category": "MET",
    "owner": "EUMET",
    "state": "I-EUM"
   },
   "omm": {
    "OBJECT_NAME": "METOP-SGA1",
    "OBJECT_ID": "2025-172A",
    "EPOCH": "2026-07-02T15:26:27.688992",
    "MEAN_MOTION": 14.19817616,
    "ECCENTRICITY": 0.00077905,
    "INCLINATION": 98.6636,
    "RA_OF_ASC_NODE": 243.044,
    "ARG_OF_PERICENTER": 9.5325,
    "MEAN_ANOMALY": 350.5998,
    "EPHEMERIS_TYPE": 0,
    "CLASSIFICATION_TYPE": "U",
    "NORAD_CAT_ID": 65159,
    "ELEMENT_SET_NO": 999,
    "REV_AT_EPOCH": 4598,
    "BSTAR": 0.000051183666,
    "MEAN_MOTION_DOT": 6.5e-7,
    "MEAN_MOTION_DDOT": 0
   }
  },
  {
   "norad": 64899,
   "name": "MICROCARB",
   "intl": "2025-156A",
   "group": "resource",
   "gcat": {
    "class": "C",
    "category": "SCI",
    "owner": "CNES",
    "state": "F"
   },
   "omm": {
    "OBJECT_NAME": "MICROCARB",
    "OBJECT_ID": "2025-156A",
    "EPOCH": "2026-07-02T04:00:47.034720",
    "MEAN_MOTION": 14.72881876,
    "ECCENTRICITY": 0.0017037,
    "INCLINATION": 98.0094,
    "RA_OF_ASC_NODE": 260.0568,
    "ARG_OF_PERICENTER": 208.4094,
    "MEAN_ANOMALY": 151.6186,
    "EPHEMERIS_TYPE": 0,
    "CLASSIFICATION_TYPE": "U",
    "NORAD_CAT_ID": 64899,
    "ELEMENT_SET_NO": 999,
    "REV_AT_EPOCH": 5017,
    "BSTAR": 0.00010881987,
    "MEAN_MOTION_DOT": 0.00000648,
    "MEAN_MOTION_DDOT": 0
   }
  },
  {
   "norad": 64723,
   "name": "MTG-S1",
   "intl": "2025-143A",
   "group": "weather",
   "gcat": {
    "class": "C",
    "category": "MET",
    "owner": "EUMET",
    "state": "I-EUM"
   },
   "omm": {
    "OBJECT_NAME": "MTG-S1",
    "OBJECT_ID": "2025-143A",
    "EPOCH": "2026-07-02T17:24:08.004096",
    "MEAN_MOTION": 1.00272109,
    "ECCENTRICITY": 0.00029574,
    "INCLINATION": 0.5916,
    "RA_OF_ASC_NODE": 342.2144,
    "ARG_OF_PERICENTER": 262.9947,
    "MEAN_ANOMALY": 296.1264,
    "EPHEMERIS_TYPE": 0,
    "CLASSIFICATION_TYPE": "U",
    "NORAD_CAT_ID": 64723,
    "ELEMENT_SET_NO": 999,
    "REV_AT_EPOCH": 357,
    "BSTAR": 0,
    "MEAN_MOTION_DOT": 3e-8,
    "MEAN_MOTION_DDOT": 0
   }
  },
  {
   "norad": 46277,
   "name": "NEMO-HD",
   "intl": "2020-061F",
   "group": "resource",
   "gcat": {
    "class": "A",
    "category": "IMG",
    "owner": "SPSI",
    "state": "SI"
   },
   "omm": {
    "OBJECT_NAME": "NEMO-HD",
    "OBJECT_ID": "2020-061F",
    "EPOCH": "2026-07-03T12:26:43.571040",
    "MEAN_MOTION": 15.44933522,
    "ECCENTRICITY": 0.00014063,
    "INCLINATION": 97.1907,
    "RA_OF_ASC_NODE": 246.3092,
    "ARG_OF_PERICENTER": 73.3282,
    "MEAN_ANOMALY": 286.8122,
    "EPHEMERIS_TYPE": 0,
    "CLASSIFICATION_TYPE": "U",
    "NORAD_CAT_ID": 46277,
    "ELEMENT_SET_NO": 999,
    "REV_AT_EPOCH": 32450,
    "BSTAR": 0.00032642068,
    "MEAN_MOTION_DOT": 0.00015279,
    "MEAN_MOTION_DDOT": 0
   }
  },
  {
   "norad": 65053,
   "name": "NISAR",
   "intl": "2025-163A",
   "group": "sar",
   "gcat": {
    "class": "C",
    "category": "IMG-R",
    "owner": "ISRO/JPL",
    "state": "IN"
   },
   "omm": {
    "OBJECT_NAME": "NISAR",
    "OBJECT_ID": "2025-163A",
    "EPOCH": "2026-07-02T18:31:36.594912",
    "MEAN_MOTION": 14.42504821,
    "ECCENTRICITY": 0.00012221,
    "INCLINATION": 98.4056,
    "RA_OF_ASC_NODE": 11.2093,
    "ARG_OF_PERICENTER": 88.7062,
    "MEAN_ANOMALY": 271.4268,
    "EPHEMERIS_TYPE": 0,
    "CLASSIFICATION_TYPE": "U",
    "NORAD_CAT_ID": 65053,
    "ELEMENT_SET_NO": 999,
    "REV_AT_EPOCH": 4863,
    "BSTAR": 0.000083074408,
    "MEAN_MOTION_DOT": 0.00000232,
    "MEAN_MOTION_DDOT": 0
   }
  },
  {
   "norad": 43013,
   "name": "NOAA 20 (JPSS-1)",
   "intl": "2017-073A",
   "group": "weather",
   "gcat": {
    "class": "C",
    "category": "MET",
    "owner": "GSFC/NOAA",
    "state": "US"
   },
   "omm": {
    "OBJECT_NAME": "NOAA 20 (JPSS-1)",
    "OBJECT_ID": "2017-073A",
    "EPOCH": "2026-07-03T13:34:29.341632",
    "MEAN_MOTION": 14.19514774,
    "ECCENTRICITY": 0.00009074,
    "INCLINATION": 98.7772,
    "RA_OF_ASC_NODE": 123.8828,
    "ARG_OF_PERICENTER": 132.6737,
    "MEAN_ANOMALY": 227.4515,
    "EPHEMERIS_TYPE": 0,
    "CLASSIFICATION_TYPE": "U",
    "NORAD_CAT_ID": 43013,
    "ELEMENT_SET_NO": 999,
    "REV_AT_EPOCH": 44679,
    "BSTAR": 0.000059079122,
    "MEAN_MOTION_DOT": 8e-7,
    "MEAN_MOTION_DDOT": 0
   }
  }
 ]
}
